{
  "norad_id": 58794,
  "name": "STARLINK-31192",
  "history": [
    {
      "epoch": "2026-03-28T06:27:25.870752",
      "apogee_km": 483.8504206773641,
      "perigee_km": 482.24353139017785,
      "latitude_deg": -23.891514083149524,
      "longitude_deg": 85.2287452800665,
      "semi_major_axis_km": 6861.183976033771,
      "eccentricity": 0.0001171,
      "inclination_deg": 43.0021,
      "raan_deg": 60.6396,
      "arg_perigee_deg": 263.6219,
      "mean_anomaly_deg": 96.4499,
      "mean_motion_rev_day": 15.27580708
    }
  ]
}