{"fetched_at":"2026-03-29T02:12:04Z","count":15717,"tles":[{"name":"STARLINK-31192","line1":"1 58794U 24012H   26087.26904943  .00001202  00000+0  53176-4 0  9992","line2":"2 58794  43.0021  60.6396 0001171 263.6219  96.4499 15.27580708124072","category":"Starlink"}]}